{
  "norad_id": 60156,
  "name": "STARLINK-32048",
  "history": [
    {
      "epoch": "2026-03-28T16:23:10.559040",
      "apogee_km": 475.9887646352008,
      "perigee_km": 474.4767741966725,
      "latitude_deg": -15.185432612886682,
      "longitude_deg": -98.8549343997147,
      "semi_major_axis_km": 6853.369769415936,
      "eccentricity": 0.00011031,
      "inclination_deg": 53.1609,
      "raan_deg": 231.7305,
      "arg_perigee_deg": 63.1027,
      "mean_anomaly_deg": 297.0086,
      "mean_motion_rev_day": 15.30194072
    }
  ]
}